id,name,street,city,state,accessible,unisex,directions,comment,latitude,longitude,created_at,updated_at,downvote,upvote,country,changing_table,edit_id,approved,distance,bearing
16538,"Westfield Garden State Plaza, 500 Garden State Plaza Boulevard, Paramus, NJ 07652, USA",Westfield Garden State Plaza,Paramus,New Jersey,True,True,"Single occupancy restroom, in new wing of mall near Starbucks and Windows store",,40.9181161,-74.0763632,2015-03-11 00:38:08.680000+00:00,2015-03-11 00:38:08.680000+00:00,0,1,US,False,16538,True,17.962452822455464,331.145304028741
24615,River edge Train Station ,16 River Edge Road,River Edge,Nj,True,True,,,40.9351142,-74.0292566,2016-08-08 19:30:47.412000+00:00,2016-08-08 19:30:47.412000+00:00,0,0,US,False,24615,True,18.301906945811595,341.674815295264
19081,Hofstra University,365 Hofstra University,Hempstead,NY,True,True,"South side of campus, Breslin hall on the second floor",,40.7178645,-73.5974371,2015-10-27 18:33:01.530000+00:00,2015-10-27 18:33:01.530000+00:00,0,1,US,False,19081,True,18.368284229905907,83.470270014554
19079,Hofstra University,365 Hofstra University,Hempstead,NY,True,True,"South side of campus, Adams Hall on the first floor",,40.7178645,-73.5974371,2015-10-27 18:30:40.026000+00:00,2015-10-27 18:30:40.026000+00:00,0,1,US,False,19079,True,18.368284229905907,83.470270014554
19080,Hofstra University,365 Hofstra University,Hempstead,NY,True,True,"South side of campus, Adams Hall on the first floor",,40.7178645,-73.5974371,2015-10-27 18:30:41.627000+00:00,2015-10-27 18:30:41.627000+00:00,0,0,US,False,19080,True,18.368284229905907,83.470270014554
28475,Slonim House Sarah Lawrence College,1 Mead Way,Bronxville,New York,True,True,"first floor, just to the right of main entrance",,40.9340953,-73.8438499,2017-02-24 05:50:43.628000+00:00,2017-02-24 05:50:43.628000+00:00,0,0,US,False,28475,True,18.443922991028856,21.402962252548
3090,Sarah Lawrence College Library,23 Glen Washington Rd.,Bronxville,NY,True,True,"Bottom floor, elevator available","9am to 8:30pm during school year, 9am to 4:30pm during summer",40.934978,-73.84503,2014-02-02 20:53:31.455000+00:00,2014-02-02 20:53:31.455000+00:00,1,0,US,False,3090,True,18.484987347752913,21.107220227643
1189,Yonkers Public Library,one Larkin Center,Yonkers,NY,True,True,"Second, Third and Fourth Floors",,40.9413523,-73.8713099,2014-02-02 20:50:38.536000+00:00,2014-02-02 20:50:38.536000+00:00,1,0,US,False,1189,True,18.578348691487673,15.472384568649
35177,Subway,2497 Rte 22,Union,NJ,True,True,Back of the reataurant,Probably need to be a patron of the restaurant.,40.6905367,-74.2988731,2017-05-20 16:26:15.491000+00:00,2017-05-20 16:26:15.491000+00:00,0,0,US,False,35177,True,18.60465404484419,271.995381511539
40197,Grover Cleveland service area,NJ Turnpike,Sewaren,New Jersey,True,True,In between the women's and men's restrooms,"This is a ""family"" unisex single occupancy bathroom",40.5587764,-74.263756,2018-03-01 14:49:16.289000+00:00,2018-03-01 14:49:16.289000+00:00,0,1,US,True,40197,True,18.681898999643145,249.514288264278
36793,Grover Cleveland service area,Sewaren,Cleveland ,New Jersey ,True,True,,"Enter the service building where there's food areas and right in front there is a family bathroom, unlocked and no one cared.",40.556982,-74.2632034,2017-08-03 17:30:29.071000+00:00,2017-08-03 17:30:29.071000+00:00,0,1,US,True,36793,True,18.71125784582028,249.199625949228
39006,"1 Education Dr, Garden City, NY 11530, USA",1 Education Dr,Garden City,New York,True,True,"Enter Life Sciences building, on the first floor near the student restrooms, the first door on the left, labelled Gender Neutral.","There is a code, it is “0001*”",40.7308129354499,-73.59120723798276,2017-12-13 18:47:04.781000+00:00,2017-12-13 18:47:04.781000+00:00,0,0,US,False,39006,True,18.841310209654868,81.518149315774
29341,Doorley Hall - Iona College,715 North Ave,New Rochelle,New York,True,True,Go to Doorley Hall on the left side of Iona College from the front Main Entrance (it is to to the right of the Ginkgo Tree) and go straight and turn left at the vending machine. ,Mainly for Iona Students who use this building for class ,40.9251914,-73.78764989999999,2017-02-25 06:05:14.200000+00:00,2017-02-25 06:05:14.200000+00:00,0,1,US,False,29341,True,18.92843694745566,32.358440220223
29346,Loftus Hall - Iona College,715 North Ave ,New Rochelle ,New York,True,True,"Go to Loftus Hall, the building at the back of the courtyard, and go to the back of the first floor past the elevators. The bathrooms are on the right ",Need to be a resident of Loftus Hall or be visiting a friend/touring - restroom is on the first floor through the doors behind the main desk,40.9251914,-73.78764989999999,2017-02-25 06:12:56.068000+00:00,2017-02-25 06:12:56.068000+00:00,0,1,US,False,29346,True,18.92843694745566,32.358440220223
34532,Il Bacio Trattoria,1 Park Pl,Bronxville,Ny,True,True,"Handicapped accessible single stall restroom on the firs floor at the back, no gender label",Really good food and service,40.9395981,-73.83345290000001,2017-04-24 21:59:00.122000+00:00,2017-04-24 21:59:00.122000+00:00,0,1,US,False,34532,True,18.96750862556307,22.951497448933
49036,Lakeside Deli,542 Bloomfield Ave ,Verona,Nj,True,True,"Straight in, make a left around the chips",Must be a customer but they have cheap things like chips or bottled water for sale,40.8315683,-74.2448055,2019-04-10 21:10:17.494000+00:00,2019-04-10 21:10:17.603000+00:00,0,0,US,False,49036,True,18.971794797783545,297.030598274546
53277,Avenue Bistro Pub,554 Bloomfield Ave,Verona,NJ,True,True,Across from the bar,Have to be paying customers but you can easily order a soda or a bottled water at the bar. Also happens to be a delightful gastro pub with delicious food.,40.8317422,-74.245154,2019-10-10 01:52:46.794000+00:00,2019-10-10 01:52:46.917000+00:00,0,0,US,False,53277,True,18.99361840660014,297.03000860079
42741,Juicy Platters,23-16 Broadway,Fair Lawn ,NJ,True,True,Unisex bathroom to the right of the register.,It is unlocked and no code is required to open the door.,40.9224632,-74.1121465,2018-08-03 03:16:15.849000+00:00,2018-08-03 03:16:15.849000+00:00,0,0,US,False,42741,True,19.028425873121435,325.484660965803
24495,Slave to the Grind,58 Pondfield Road,Bronxville,New York,True,True,,,40.9406456,-73.8337797,2016-08-02 23:42:25.588000+00:00,2016-08-02 23:42:25.588000+00:00,0,0,US,False,24495,True,19.03123837050151,22.808746201335
41754,First Cup Coffee,First Avenue ,Atlantic Highlands,NJ,True,True,"Find the door marked restroom, it will lead into a hallway, the rest room is the first door on the left. ","Most of the baristas will let you use it even if you're not a paying customer, but some won't.",40.4118691,-74.0387698,2018-06-11 13:46:10.177000+00:00,2020-04-14 21:23:32.173000+00:00,0,0,US,False,41754,True,19.058930399045263,199.55863691329
41841,Giannis pizza,First Ave ,Atlantic highlands ,New jersey,True,True,,You have to be a “paying customer”,40.4111223,-74.03914189999999,2018-06-15 22:32:43.588000+00:00,2018-06-15 22:32:43.588000+00:00,0,0,US,False,41841,True,19.113845825212262,199.578976802574
41623,Millburn Delicatessen ,328 Millburn Ave,Millburn ,Nj,True,True,Building to the right with dining area ,,40.72392809999999,-74.3064716,2018-06-02 16:38:30.780000+00:00,2018-06-02 16:38:30.780000+00:00,0,1,US,False,41623,True,19.239852276142724,277.196705641914
50866,Rock ‘n' Joe of Millburn,63 Main St,Millburn ,NJ,True,True,Head straight back and take a right,,40.7233521,-74.3072838,2019-07-06 19:04:22.577000+00:00,2019-07-06 19:04:22.790000+00:00,0,1,US,True,50866,True,19.275416201478393,277.091295503297
50867,Rockn’ Joe,63 Main Street,Millburn,New Jersey ,True,True,Head straight back and take a right. ,,40.7233521,-74.3072838,2019-07-06 19:06:05.340000+00:00,2019-07-06 19:06:05.445000+00:00,0,0,US,True,50867,True,19.275416201478393,277.091295503297
38219,Dunkn' Donuts,363 Millburn Avenue ,Millburn,New Jersey ,True,True,,"Have to be a ""paying customer""",40.723712,-74.3084516,2017-10-17 20:09:04.339000+00:00,2017-10-17 20:09:04.339000+00:00,0,0,US,True,38219,True,19.33976102658476,277.124534367417
23561,Grover Cleveland Travel Plaza,New Jersey Turnpike Northbound,Woodbridge Township,New Jersey,True,True,,Family/unisex restroom,40.563251,-74.282973,2016-06-24 22:42:42.301000+00:00,2016-06-24 22:42:42.301000+00:00,0,0,US,False,23561,True,19.46250274902824,251.262863889242
47944,NYIT-deSeversky Mansion,1 Northern Blvd,Glen Head,New York,True,True,"On the First Floor Near Stairwell Leading to NYCOMEC Area. For Driving Directions when on campus, follow the posted signs to the Mansion.",,40.8091088,-73.6143809,2019-03-06 15:28:16.270000+00:00,2019-03-17 01:12:17.119000+00:00,0,0,US,False,47943,True,19.489746668289385,68.345581947656
28918,Macy's Route 22 Furniture Gallery,114 Route 22 west,Springfield ,NJ ,True,True,,,40.68810999999999,-74.316789,2017-02-24 22:01:32.275000+00:00,2017-02-24 22:01:32.275000+00:00,0,0,US,False,28918,True,19.536149131050806,271.526721970887
22555,Cedar Medical,440 Kinderkamack,Oradell,NJ,True,True,In waiting room,This is a doctor's office. If you're not a patient I recommend asking for directions to Kindersmiles (a dentist down the block) and then ask if you can use the facilities while you're there. ,40.9556623,-74.03119629999999,2016-06-07 21:06:20.216000+00:00,2016-06-07 21:06:20.216000+00:00,0,0,US,False,22555,True,19.705078626318258,342.58491901128
43205,Benny's Luncheonette ,11-04 Saddle River Rd,Fair Lawn,NJ,True,True,The bathroom is located in the back of the restaurant ,"It is a gender-neutral bathroom, but you must be a customer to use it.",40.938749,-74.0989439,2018-08-25 17:14:45.204000+00:00,2018-08-25 17:14:45.204000+00:00,0,0,US,False,43205,True,19.739757041500084,329.288540124995
48259,NYIT-500 Building,500 Bldg,Glen Head,New York,True,True,On First Floor,,40.8098202,-73.6065683,2019-03-19 14:20:00.133000+00:00,2019-03-19 14:20:00.171000+00:00,0,0,US,False,48259,True,19.87526147615878,68.696889276481
48243,NYIT-Gerry House,Gerry House,Glen Head,New York,True,True,Near Room #113,,40.8123952,-73.6078562,2019-03-18 18:02:09.747000+00:00,2019-03-18 18:02:09.893000+00:00,0,0,US,False,48243,True,19.897333266849607,68.243235510743
48255,NYIT-Tower House,Tower House,Glen Head,New York,True,True,Near Conference Room,,40.8112397,-73.6069581,2019-03-19 14:03:28.217000+00:00,2019-03-19 14:03:28.340000+00:00,0,0,US,False,48255,True,19.902069117206175,68.465475759993
48256,NYIT-Rockfeller,Nelson A. Rockefeller Academic Center,Glen Head,NY,True,True,"Four in Building. B, 1, 2, & 3",,40.8103192,-73.6062922,2019-03-19 14:08:35.840000+00:00,2019-03-19 14:08:36.464000+00:00,0,0,US,False,48256,True,19.903845849643112,68.639307719961
48258,NYIT-Hannah and Charles Serota Academic Center,Hannah and Charles Serota Academic Center,Old Westbury,New York,True,True,Two Restrooms. One on the First Floor and one on the Second Floor.,,40.8103979,-73.6055102,2019-03-19 14:18:28.385000+00:00,2019-03-19 14:18:28.563000+00:00,0,0,US,False,48258,True,19.942710363244025,68.672647194918
48257,NYIT-Riland: Academic Health Care Center,Campus Dr,Glen Head,New York,True,True,"On First Floor. In NYCOM Clinic, near Nurse Station",,40.8099826,-73.6042827,2019-03-19 14:11:53.297000+00:00,2019-03-19 14:11:53.431000+00:00,0,0,US,False,48257,True,19.98680850166273,68.803619750886
48047,"Campus Dr, Glen Head, NY 11545, USA",Campus Dr,Glen Head,New York,True,True,Two Locations. One on the Lower Level and the other on the Second Floor,,40.8099826,-73.6042827,2019-03-11 17:08:39.010000+00:00,2019-03-11 17:08:39.032000+00:00,0,0,US,False,48047,True,19.98680850166273,68.803619750886
